{
  "type": "FeatureCollection",
  "features": [
    {
      "type": "Feature",
      "properties": {
        "norad_id": 30469,
        "name": "FENGYUN 1C DEB",
        "group": "fengyun-1c-debris",
        "lat": 43.21474695924769,
        "lon": 32.842470556194876,
        "alt_km": 788.7957629615066,
        "timestamp": "2025-12-20T16:47:36.563227+00:00",
        "meta_object_name": "FENGYUN 1C DEB",
        "meta_object_id": "1999-025AGG",
        "meta_epoch": "2025-12-20T01:23:55.563072",
        "meta_mean_motion": 13.96530202,
        "meta_eccentricity": 0.0158592,
        "meta_inclination": 98.4784,
        "meta_ra_of_asc_node": 204.195,
        "meta_arg_of_pericenter": 149.1515,
        "meta_mean_anomaly": 4.216,
        "meta_ephemeris_type": 0,
        "meta_classification_type": "U",
        "meta_norad_cat_id": 30469,
        "meta_element_set_no": 999,
        "meta_rev_at_epoch": 95808,
        "meta_bstar": 0.00076061903,
        "meta_mean_motion_dot": 1.131e-05,
        "meta_mean_motion_ddot": 0,
        "tle_line1": "1 30469U 99025AGG 25354.05828198  .00001131  00000+0  76062-3 0  9996",
        "tle_line2": "2 30469  98.4784 204.1950 0158592 149.1515   4.2160 13.96530202958085"
      },
      "geometry": {
        "type": "Point",
        "coordinates": [
          32.842470556194876,
          43.21474695924769
        ]
      }
    },
    {
      "type": "Feature",
      "properties": {
        "norad_id": 30471,
        "name": "FENGYUN 1C DEB",
        "group": "fengyun-1c-debris",
        "lat": 1.1471408683618534,
        "lon": 82.21680151597864,
        "alt_km": 887.9338316657377,
        "timestamp": "2025-12-20T16:47:36.563237+00:00",
        "meta_object_name": "FENGYUN 1C DEB",
        "meta_object_id": "1999-025AGJ",
        "meta_epoch": "2025-12-20T05:01:55.197696",
        "meta_mean_motion": 14.136707,
        "meta_eccentricity": 0.00831853,
        "meta_inclination": 99.0544,
        "meta_ra_of_asc_node": 81.9037,
        "meta_arg_of_pericenter": 232.6404,
        "meta_mean_anomaly": 155.2545,
        "meta_ephemeris_type": 0,
        "meta_classification_type": "U",
        "meta_norad_cat_id": 30471,
        "meta_element_set_no": 999,
        "meta_rev_at_epoch": 96548,
        "meta_bstar": 0.001139815,
        "meta_mean_motion_dot": 2.179e-05,
        "meta_mean_motion_ddot": 0,
        "tle_line1": "1 30471U 99025AGJ 25354.20966664  .00002179  00000+0  11398-2 0  9990",
        "tle_line2": "2 30471  99.0544  81.9037 0083185 232.6404 155.2545 14.13670700965480"
      },
      "geometry": {
        "type": "Point",
        "coordinates": [
          82.21680151597864,
          1.1471408683618534
        ]
      }
    },
    {
      "type": "Feature",
      "properties": {
        "norad_id": 30472,
        "name": "FENGYUN 1C DEB",
        "group": "fengyun-1c-debris",
        "lat": 1.3703611482717126,
        "lon": -83.7210126584488,
        "alt_km": 730.3221429383293,
        "timestamp": "2025-12-20T16:47:36.563247+00:00",
        "meta_object_name": "FENGYUN 1C DEB",
        "meta_object_id": "1999-025AGK",
        "meta_epoch": "2025-12-19T05:25:47.155872",
        "meta_mean_motion": 14.53905184,
        "meta_eccentricity": 0.0037736,
        "meta_inclination": 98.6522,
        "meta_ra_of_asc_node": 94.5483,
        "meta_arg_of_pericenter": 59.5385,
        "meta_mean_anomaly": 330.7117,
        "meta_ephemeris_type": 0,
        "meta_classification_type": "U",
        "meta_norad_cat_id": 30472,
        "meta_element_set_no": 999,
        "meta_rev_at_epoch": 98135,
        "meta_bstar": 0.0015123,
        "meta_mean_motion_dot": 6.377e-05,
        "meta_mean_motion_ddot": 0,
        "tle_line1": "1 30472U 99025AGK 25353.22624023  .00006377  00000+0  15123-2 0  9996",
        "tle_line2": "2 30472  98.6522  94.5483 0037736  59.5385 330.7117 14.53905184981352"
      },
      "geometry": {
        "type": "Point",
        "coordinates": [
          -83.7210126584488,
          1.3703611482717126
        ]
      }
    },
    {
      "type": "Feature",
      "properties": {
        "norad_id": 30474,
        "name": "FENGYUN 1C DEB",
        "group": "fengyun-1c-debris",
        "lat": -44.9859481839509,
        "lon": 82.93051337313844,
        "alt_km": 757.2051503267139,
        "timestamp": "2025-12-20T16:47:36.563257+00:00",
        "meta_object_name": "FENGYUN 1C DEB",
        "meta_object_id": "1999-025AGM",
        "meta_epoch": "2025-12-20T03:54:59.017248",
        "meta_mean_motion": 14.3784684,
        "meta_eccentricity": 0.00230003,
        "meta_inclination": 98.9287,
        "meta_ra_of_asc_node": 73.3328,
        "meta_arg_of_pericenter": 339.4022,
        "meta_mean_anomaly": 79.3803,
        "meta_ephemeris_type": 0,
        "meta_classification_type": "U",
        "meta_norad_cat_id": 30474,
        "meta_element_set_no": 999,
        "meta_rev_at_epoch": 97500,
        "meta_bstar": 0.0014238017,
        "meta_mean_motion_dot": 4.261e-05,
        "meta_mean_motion_ddot": 0,
        "tle_line1": "1 30474U 99025AGM 25354.16318307  .00004261  00000+0  14238-2 0  9993",
        "tle_line2": "2 30474  98.9287  73.3328 0023000 339.4022  79.3803 14.37846840975003"
      },
      "geometry": {
        "type": "Point",
        "coordinates": [
          82.93051337313844,
          -44.9859481839509
        ]
      }
    },
    {
      "type": "Feature",
      "properties": {
        "norad_id": 30475,
        "name": "FENGYUN 1C DEB",
        "group": "fengyun-1c-debris",
        "lat": 72.40197577217488,
        "lon": -114.70039575416509,
        "alt_km": 862.3961231908424,
        "timestamp": "2025-12-20T16:47:36.563267+00:00",
        "meta_object_name": "FENGYUN 1C DEB",
        "meta_object_id": "1999-025AGN",
        "meta_epoch": "2025-12-19T22:13:44.252832",
        "meta_mean_motion": 14.15700454,
        "meta_eccentricity": 0.0042832,
        "meta_inclination": 98.7874,
        "meta_ra_of_asc_node": 35.3492,
        "meta_arg_of_pericenter": 269.8981,
        "meta_mean_anomaly": 215.4598,
        "meta_ephemeris_type": 0,
        "meta_classification_type": "U",
        "meta_norad_cat_id": 30475,
        "meta_element_set_no": 999,
        "meta_rev_at_epoch": 97053,
        "meta_bstar": 0.00060931,
        "meta_mean_motion_dot": 1.161e-05,
        "meta_mean_motion_ddot": 0,
        "tle_line1": "1 30475U 99025AGN 25353.92620663  .00001161  00000+0  60931-3 0  9996",
        "tle_line2": "2 30475  98.7874  35.3492 0042832 269.8981 215.4598 14.15700454970531"
      },
      "geometry": {
        "type": "Point",
        "coordinates": [
          -114.70039575416509,
          72.40197577217488
        ]
      }
    },
    {
      "type": "Feature",
      "properties": {
        "norad_id": 30476,
        "name": "FENGYUN 1C DEB",
        "group": "fengyun-1c-debris",
        "lat": 13.667613843872525,
        "lon": 29.91194556984849,
        "alt_km": 827.1195047952187,
        "timestamp": "2025-12-20T16:47:36.563278+00:00",
        "meta_object_name": "FENGYUN 1C DEB",
        "meta_object_id": "1999-025AGP",
        "meta_epoch": "2025-12-18T02:31:08.601024",
        "meta_mean_motion": 14.20941782,
        "meta_eccentricity": 0.00454083,
        "meta_inclination": 99.1246,
        "meta_ra_of_asc_node": 29.4735,
        "meta_arg_of_pericenter": 284.0077,
        "meta_mean_anomaly": 143.513,
        "meta_ephemeris_type": 0,
        "meta_classification_type": "U",
        "meta_norad_cat_id": 30476,
        "meta_element_set_no": 999,
        "meta_rev_at_epoch": 96921,
        "meta_bstar": 0.0011618658,
        "meta_mean_motion_dot": 2.495e-05,
        "meta_mean_motion_ddot": 0,
        "tle_line1": "1 30476U 99025AGP 25352.10496066  .00002495  00000+0  11619-2 0  9993",
        "tle_line2": "2 30476  99.1246  29.4735 0045408 284.0077 143.5130 14.20941782969214"
      },
      "geometry": {
        "type": "Point",
        "coordinates": [
          29.91194556984849,
          13.667613843872525
        ]
      }
    },
    {
      "type": "Feature",
      "properties": {
        "norad_id": 30477,
        "name": "FENGYUN 1C DEB",
        "group": "fengyun-1c-debris",
        "lat": 59.646286215982116,
        "lon": -86.52476192012553,
        "alt_km": 1405.3643209802522,
        "timestamp": "2025-12-20T16:47:36.563288+00:00",
        "meta_object_name": "FENGYUN 1C DEB",
        "meta_object_id": "1999-025AGQ",
        "meta_epoch": "2025-12-20T12:37:17.536224",
        "meta_mean_motion": 13.23849635,
        "meta_eccentricity": 0.0434556,
        "meta_inclination": 99.4251,
        "meta_ra_of_asc_node": 76.8407,
        "meta_arg_of_pericenter": 258.3377,
        "meta_mean_anomaly": 115.9098,
        "meta_ephemeris_type": 0,
        "meta_classification_type": "U",
        "meta_norad_cat_id": 30477,
        "meta_element_set_no": 999,
        "meta_rev_at_epoch": 90822,
        "meta_bstar": 0.0025001,
        "meta_mean_motion_dot": 1.72e-05,
        "meta_mean_motion_ddot": 0,
        "tle_line1": "1 30477U 99025AGQ 25354.52589741  .00001720  00000+0  25001-2 0  9995",
        "tle_line2": "2 30477  99.4251  76.8407 0434556 258.3377 115.9098 13.23849635908225"
      },
      "geometry": {
        "type": "Point",
        "coordinates": [
          -86.52476192012553,
          59.646286215982116
        ]
      }
    }
  ]
}